IRIDIUM 116             
1 43072U 17083C   24205.57638015  .00000090  00000+0  24939-4 0  9992
2 43072  86.3942 251.8499 0002270  90.6318 269.5138 14.34217184344758
IRIDIUM 130             
1 43073U 17083D   24205.40512837  .00000498  00000+0  17079-3 0  9996
2 43073  86.3942 252.1278 0002126  87.2285 272.9154 14.34217517344670
IRIDIUM 151             
1 43074U 17083E   24205.37975899  .00000643  00000+0  22238-3 0  9999
2 43074  86.3944 251.9743 0002074  95.8831 264.2601 14.34219675344691
IRIDIUM 134             
1 43075U 17083F   24205.41781488  .00000250  00000+0  82198-4 0  9990
2 43075  86.3946 251.9569 0002354  88.0441 272.1024 14.34217819344664
IRIDIUM 137             
1 43076U 17083G   24205.57003262  .00000462  00000+0  15778-3 0  9999
2 43076  86.3947 251.9720 0001778  88.7349 271.4051 14.34218907344759
IRIDIUM 141             
1 43077U 17083H   24205.42416157  .00000071  00000+0  18272-4 0  9994
2 43077  86.3942 251.9034 0002335  99.7447 260.4012 14.34218167344735
IRIDIUM 153             
1 43078U 17083J   24205.30655777  .00000159  00000+0  49695-4 0  9995
2 43078  86.3963 220.4244 0002563 104.5258 255.6222 14.34216957345826
IRIDIUM 131             
1 43079U 17083K   24205.41147088  .00000223  00000+0  72658-4 0  9996
2 43079  86.3947 252.0480 0002121  94.3376 265.8062 14.34217450344664
